SatCatId,ObjectName,LaunchYear,OrbitalPeriod,LaunchMass,StatusCode,Status,UcsData,OrbitClass,LaunchSiteCountry,Owner,UseType,Purpose,LaunchVehicleClass,TLE1,TLE2
13617,COSMOS 1417,1982,104.7,-1.0,UNK,Inactive,0,LEO,Russia,Russia/USSR,Unknown,Unknown,Kosmos,1 13617U 82102A   22339.40572347  .00000035  00000+0  20560-4 0  9996,2 13617  82.9664 131.9414 0035592  69.8569 309.8197 13.75418778 13647
13624,GORIZONT 6,1982,1435.4,-1.0,-,Inactive,0,GEO,Kazakhstan,Russia/USSR,Unknown,Unknown,Proton,1 13624U 82103A   22339.54478377  .00000123  00000+0  00000+0 0  9998,2 13624  10.1387 312.5912 0001384 250.0882 266.1477  1.00320526108014
13631,SATCOM C5,1982,1436.11,-1.0,-,Inactive,0,GEO,USA,USA,Unknown,Unknown,Delta,1 13631U 82105A   22339.49480795 -.00000107  00000+0  00000+0 0  9992,2 13631  13.5625 341.9706 0002723  65.7523  99.0303  1.00270763113443
13636,DSCS 2-15,1982,1514.34,-1.0,-,Inactive,0,HEO,USA,USA,Unknown,Unknown,Titan,1 13636U 82106A   22339.37374377 -.00000151  00000+0  00000+0 0  9992,2 13636  14.0092 335.2539 0004067 164.9297 229.9273  0.95090790 91869
13637,DSCS 3-1,1982,1471.99,-1.0,-,Inactive,0,GEO,USA,USA,Unknown,Unknown,Titan,1 13637U 82106B   22339.45458594 -.00000066  00000+0  00000+0 0  9991,2 13637  13.8614 342.4528 0020071 161.4131  11.4719  0.97826799 52692
13648,COSMOS 1420,1982,100.42,-1.0,UNK,Inactive,0,LEO,Russia,Russia/USSR,Military,Unknown,Kosmos,1 13648U 82109A   22339.56868377  .00000096  00000+0  43838-4 0  9995,2 13648  73.9959  29.4965 0018775  77.2351 283.0898 14.33982017 94676
13651,SBS 3,1982,1441.14,-1.0,UNK,Inactive,0,GEO,USA,USA,Unknown,Unknown,Shuttle,1 13651U 82110B   22339.59484899  .00000031  00000+0  00000+0 0  9995,2 13651  13.8641 343.8974 0008071  98.7346  84.5780  0.99921142 33658
13652,ANIK C3 (TELESAT 5),1982,1441.41,-1.0,-,Inactive,0,GEO,USA,Canada,Unknown,Unknown,Shuttle,1 13652U 82110C   22339.60513593  .00000090  00000+0  00000+0 0  9997,2 13652  13.8499 343.7004 0002373 112.9677  58.1287  0.99902220 33620
13669,RADUGA 11,1982,1473.78,-1.0,-,Inactive,0,GEO,Kazakhstan,Russia/USSR,Unknown,Unknown,Proton,1 13669U 82113A   22339.45014052 -.00000041  00000+0  00000+0 0  9994,2 13669  11.7613 320.7452 0038479 257.4099 273.7687  0.97707712108937
13718,METEOR 2-9,1982,101.73,-1.0,UNK,Inactive,0,LEO,Russia,Russia/USSR,Unknown,Unknown,Vostok,1 13718U 82116A   22339.53898956  .00000002  00000+0 -56335-5 0  9999,2 13718  81.2485 173.6236 0054366  46.9079 313.6625 14.15536069 63899
13736,OPS 9845 (DMSP 5D-2 F6),1982,100.74,-1.0,-,Inactive,0,LEO,USA,USA,Unknown,Unknown,Atlas,1 13736U 82118A   22339.26735561  .00000119  00000+0  63762-4 0  9992,2 13736  98.5841 162.7131 0008010 148.4942 211.6722 14.29490814 80651
13757,COSMOS 1428,1983,104.58,-1.0,UNK,Inactive,0,LEO,Russia,Russia/USSR,Unknown,Unknown,Kosmos,1 13757U 83001A   22339.33249098  .00000041  00000+0  26338-4 0  9992,2 13757  82.9111 284.5975 0033301 250.2145 263.7314 13.76895767  4184
13761,COSMOS 1429,1983,115.81,-1.0,UNK,Inactive,0,LEO,Russia,Russia/USSR,Military,Unknown,Kosmos,1 13761U 83002A   22339.37462487 -.00000015  00000+0  55027-5 0  9991,2 13761  74.0224 120.4397 0033537 247.4860 127.3681 12.43410276810071
13762,COSMOS 1430,1983,115.6,-1.0,UNK,Inactive,0,LEO,Russia,Russia/USSR,Military,Unknown,Kosmos,1 13762U 83002B   22339.43133987 -.00000014  00000+0  11366-4 0  9995,2 13762  74.0265  38.3333 0019859 164.8086 206.3972 12.45695537813641
13763,COSMOS 1431,1983,115.41,-1.0,UNK,Inactive,0,LEO,Russia,Russia/USSR,Military,Unknown,Kosmos,1 13763U 83002C   22339.42539450 -.00000004  00000+0  76967-4 0  9997,2 13763  74.0238 325.6558 0010808  44.0614  29.0903 12.47719482816313
13764,COSMOS 1432,1983,115.21,-1.0,UNK,Inactive,0,LEO,Russia,Russia/USSR,Military,Unknown,Kosmos,1 13764U 83002D   22339.22109080 -.00000021  00000+0 -34261-4 0  9999,2 13764  74.0243 249.2341 0003503 230.7301 244.6552 12.49856777819670
13765,COSMOS 1433,1983,115.02,-1.0,UNK,Inactive,0,LEO,Russia,Russia/USSR,Military,Unknown,Kosmos,1 13765U 83002E   22339.33711963  .00000017  00000+0  21098-3 0  9997,2 13765  74.0212 174.3827 0013168 112.6904  60.4947 12.51918241822684
13766,COSMOS 1434,1983,114.85,-1.0,UNK,Inactive,0,LEO,Russia,Russia/USSR,Military,Unknown,Kosmos,1 13766U 83002F   22339.29230222 -.00000020  00000+0 -26770-4 0  9996,2 13766  74.0234 106.7894 0023254  25.4770 343.9669 12.53790275825401
13767,COSMOS 1435,1983,114.68,-1.0,UNK,Inactive,0,LEO,Russia,Russia/USSR,Military,Unknown,Kosmos,1 13767U 83002G   22339.56121613 -.00000004  00000+0  77970-4 0  9999,2 13767  74.0266  37.4790 0034864 310.8513 117.4027 12.55679775827853
13768,COSMOS 1436,1983,114.49,-1.0,UNK,Inactive,0,LEO,Russia,Russia/USSR,Military,Unknown,Kosmos,1 13768U 83002H   22339.43290609 -.00000005  00000+0  69164-4 0  9995,2 13768  74.0239 323.7079 0044299 217.4939 216.5421 12.57707478830859
13777,IRAS,1983,102.82,-1.0,-,Inactive,0,LEO,USA,USA,Unknown,Unknown,Delta,1 13777U 83004A   22339.47670189 -.00000092  00000+0 -32609-4 0  9997,2 13777  98.9756 156.1938 0018940 295.8253  64.0958 14.00468459705825
13782,SAKURA-2A (CS-2A),1983,1448.62,-1.0,-,Inactive,0,GEO,Japan,Japan,Unknown,Unknown,JAXA N,1 13782U 83006A   22338.58289903  .00000068  00000+0  00000+0 0  9992,2 13782  12.4024 329.7446 0009010 292.2261  60.8174  0.99404950115064
13844,SSA,1983,105.84,-1.0,UNK,Inactive,0,LEO,USA,USA,Unknown,Unknown,JAXA Mu,1 13844U 83008E   22339.39408743  .00002666  00000+0  25328-3 0  9998,2 13844  63.3026 299.9507 0859919 111.8806 257.5873 13.60483332182123
13845,SSB,1983,105.8,-1.0,UNK,Inactive,0,LEO,USA,USA,Unknown,Unknown,JAXA Mu,1 13845U 83008F   22339.30519287  .00002858  00000+0  27007-3 0  9995,2 13845  63.3022 293.4358 0857337 112.3043 257.1113 13.61031144168076
13874,SSC,1983,105.73,-1.0,UNK,Inactive,0,LEO,USA,USA,Unknown,Unknown,JAXA Mu,1 13874U 83008H   22339.36086810  .00003253  00000+0  27831-3 0  9999,2 13874  63.2974 289.4773 0865046 112.2819 257.2207 13.61923410174590
13875,MOLNIYA 3-20,1983,717.11,-1.0,UNK,Inactive,0,MEO,Russia,Russia/USSR,Unknown,Unknown,Molniya,1 13875U 83015A   22339.05967671  .00001054  00000+0  30909-2 0  9993,2 13875  62.6387 325.6604 7389116 259.7468  17.4399  2.00806240227130
13878,EKRAN 10,1983,1515.31,-1.0,-,Inactive,0,HEO,Kazakhstan,Russia/USSR,Unknown,Unknown,Proton,1 13878U 83016A   22338.04670022 -.00000089  00000+0  00000+0 0  9990,2 13878  13.0764 320.2807 0030732 358.1787 183.6353  0.95029985106908
13890,MOLNIYA 1-56,1983,720.02,-1.0,UNK,Inactive,0,MEO,Russia,Russia/USSR,Unknown,Unknown,Molniya,1 13890U 83019A   22336.25472670  .00001129  00000+0  69058-3 0  9994,2 13890  62.9172 351.0053 7450143 265.5272  14.7213  1.99993639289959
13901,ASTRON,1983,5929.88,-1.0,-,Inactive,0,HEO,Kazakhstan,Russia/USSR,Unknown,Unknown,Atlas,1 13901U 83020A   22338.56764778 -.00001325  00000+0  00000+0 0  9995,2 13901  74.5947  69.2842 6090970   4.8718 359.5812  0.24283788  8016
13912,OV2-3,1965,296.77,-1.0,UNK,Inactive,0,MEO,USA,USA,Unknown,Unknown,Titan,1 13912U 65108V   22338.17182791  .00010663  00000+0  12378-2 0  9998,2 13912  26.6654 332.7341 5491319  82.7063 333.6548  4.85218486504960
13916,COSMOS 1447,1983,104.72,-1.0,-,Inactive,0,LEO,Russia,Russia/USSR,Unknown,Unknown,Kosmos,1 13916U 83021A   22339.51285203  .00000046  00000+0  31909-4 0  9994,2 13916  82.9470 234.8315 0037318 188.6884 344.7287 13.75144726991805
13923,NOAA 8,1983,100.78,-1.0,-,Inactive,0,LEO,USA,USA,Unknown,Unknown,Atlas,1 13923U 83022A   22339.57255620  .00000112  00000+0  61788-4 0  9991,2 13923  98.7005 329.5719 0016101  70.4475 289.8443 14.28861768 66844
13949,COSMOS 1448,1983,104.66,-1.0,UNK,Inactive,0,LEO,Russia,Russia/USSR,Unknown,Unknown,Kosmos,1 13949U 83023A   22339.32832546  .00000051  00000+0  36760-4 0  9995,2 13949  82.9550 309.2782 0030854 128.1050  36.0895 13.75943268992453
13969,TDRS 1,1983,1458.35,-1.0,-,Inactive,0,GEO,USA,USA,Unknown,Unknown,Shuttle,1 13969U 83026B   22339.56042458  .00000034  00000+0  00000+0 0  9995,2 13969  10.8521 327.3775 0020666 230.7928 133.3319  0.98741680117636
13974,RADUGA 12,1983,1435.77,-1.0,-,Inactive,0,GEO,Kazakhstan,Russia/USSR,Unknown,Unknown,Proton,1 13974U 83028A   22339.56694069 -.00000075  00000+0  00000+0 0  9990,2 13974  10.8539 316.7299 0001524 108.1150 285.9111  1.00294566156458
13984,SATCOM 1R,1983,1442.22,-1.0,UNK,Inactive,0,GEO,USA,USA,Unknown,Unknown,Delta,1 13984U 83030A   22339.57536304 -.00000194  00000+0  00000+0 0  9994,2 13984  14.3216 348.1806 0008074 110.9869 276.5613  0.99846358117604
13991,COSMOS 1452,1983,100.47,-1.0,UNK,Inactive,0,LEO,Russia,Russia/USSR,Military,Unknown,Kosmos,1 13991U 83031A   22339.59994255  .00000104  00000+0  47104-4 0  9999,2 13991  74.0504  39.0460 0017072 322.5462 145.9744 14.33195577 71814
14032,COSMOS 1455,1983,94.59,-1.0,UNK,Inactive,0,LEO,Russia,Russia/USSR,Unknown,Unknown,Tsiklon,1 14032U 83037A   22339.32122362  .00005246  00000+0  22534-3 0  9996,2 14032  82.5137 270.6244 0016090 158.6574 201.5336 15.22342835164214
14050,GOES 6,1983,1436.32,-1.0,-,Inactive,0,GEO,USA,USA,Unknown,Unknown,Delta,1 14050U 83041A   22339.43431809 -.00000257  00000+0  00000+0 0  9990,2 14050  12.2478 330.5694 0003255 169.0257  14.7185  1.00256062203082
14057,COSMOS 1459,1983,104.6,-1.0,UNK,Inactive,0,LEO,Russia,Russia/USSR,Unknown,Unknown,Kosmos,1 14057U 83042A   22339.57636288  .00000057  00000+0  41713-4 0  9999,2 14057  82.9750  53.8636 0049331 189.0026 171.0252 13.76622271988287
14064,COSMOS 1461,1983,96.14,-1.0,UNK,Inactive,0,LEO,Kazakhstan,Russia/USSR,Unknown,Unknown,Tsiklon,1 14064U 83044A   22339.38581511  .00003805  00000+0  30182-3 0  9997,2 14064  65.0004 213.4527 0104582 323.9227  35.4862 14.97832503 21838
14077,INTELSAT 506,1983,1452.14,-1.0,-,Inactive,0,GEO,USA,INTELSAT,Unknown,Unknown,Atlas,1 14077U 83047A   22339.25776745 -.00000123  00000+0  00000+0 0  9998,2 14077  13.8823 342.8758 0037247 314.5286 240.4160  0.99163726111299
